ACS3                    
1 59588U 24077B   24206.63034389  .00000082  00000+0  13021-3 0  9994
2 59588  97.4042 266.1111 0019919 356.2904   3.8096 13.67693403 12527
